satname,norad_id,inclination_deg,eccentricity,mean_motion_rev_per_day,perigee_km,apogee_km,l1,l2
STARLINK-1364,45589,53.0532,0.000117,15.0641526,546.3545283216654,547.9750489402049,1 45589U 20025BL  25345.77960785  .00002122  00000+0  16121-3 0  9998,2 45589  53.0532 111.2636 0001170  80.3922 279.7199 15.06415260312251
STARLINK-1365,45590,53.0604,8.11e-05,15.06450138,546.4962631453345,547.6195297575387,1 45590U 20025BM  25345.46355336 -.00010449  00000+0 -68273-3 0  9994,2 45590  53.0604 142.6774 0000811 126.4440 233.6624 15.06450138311807
STARLINK-1443,45660,53.0558,0.000162,15.06387485,546.128002196132,548.3718275565516,1 45660U 20035D   25346.31132993 -.00000446  00000+0 -11050-4 0  9998,2 45660  53.0558  98.8782 0001620  99.1206 260.9966 15.06387485305561
STARLINK-1446,45663,53.0269,0.0002036,15.37310617,452.6748886450714,455.45696167619735,1 45663U 20035G   25346.17531358  .00038299  00000+0  10376-2 0  9996,2 45663  53.0269  53.7177 0002036   7.5588 352.5445 15.37310617306185
STARLINK-1448,45665,53.0523,0.0001073,15.06390274,546.4982737890923,547.9844599866274,1 45665U 20035J   25346.31501390  .00000089  00000+0  24893-4 0  9994,2 45665  53.0523  98.8559 0001073  89.1473 270.9639 15.06390274305554
STARLINK-1451,45668,53.0553,0.0001338,15.06386814,546.3253543795627,548.178588468315,1 45668U 20035M   25346.31874492 -.00001427  00000+0 -76982-4 0  9998,2 45668  53.0553  99.1609 0001338  96.0785 264.0356 15.06386814305563
STARLINK-1452,45669,53.0368,0.0005913,15.31663085,466.8002330936233,474.8998451660973,1 45669U 20035N   25346.26730000  .00078437  00000+0  25146-2 0  9996,2 45669  53.0368  73.7062 0005913 146.2984 213.8392 15.31663085305918
STARLINK-1453,45670,53.0573,0.0001626,15.20247405,503.9745146780333,506.21294131077684,1 45670U 20035P   25346.33349537  .01019530  00000+0  43137-1 0  9996,2 45670  53.0573  67.6854 0001626  76.1256 154.5072 15.20247405  5790
STARLINK-1454,45671,53.0529,0.000144,15.06419788,546.1536697729307,548.1481526913649,1 45671U 20035Q   25345.74369483  .00006147  00000+0  43096-3 0  9998,2 45671  53.0529 101.4260 0001440  82.2535 277.8617 15.06419788305462
STARLINK-1456,45673,53.054,0.0003137,15.06541241,544.6063623779974,548.9510544934692,1 45673U 20035S   25345.75830684  .00016769  00000+0  11376-2 0  9993,2 45673  53.0540 101.3571 0003137  99.6275 260.5069 15.06541241305481
STARLINK-1457,45674,53.051,0.0004978,15.47671124,420.15491809387095,426.9266685048806,1 45674U 20035T   25346.33349537  .00133001  00000+0  24967-2 0  9990,2 45674  53.0510  89.8791 0004978 329.2338  95.5284 15.47671124  5862
STARLINK-1458,45675,53.0526,0.0001503,15.06394437,546.1877253336779,548.2694902353787,1 45675U 20035U   25345.75476481  .00006431  00000+0  45030-3 0  9996,2 45675  53.0526 101.3714 0001503  84.6412 275.4748 15.06394437305446
STARLINK-1460,45676,53.0561,0.0001433,15.06418809,546.1615174744411,548.146305849722,1 45676U 20035V   25345.72524076  .00003782  00000+0  27254-3 0  9992,2 45676  53.0561 101.5063 0001433  92.2810 267.8343 15.06418809305439
STARLINK-1392,45677,53.0543,0.00015,15.06408735,546.1459882827294,548.2235848186947,1 45677U 20035W   25345.73630682  .00003043  00000+0  22302-3 0  9994,2 45677  53.0543 101.4569 0001500  99.2375 260.8784 15.06408735305471
STARLINK-1394,45679,53.053,0.0001358,15.06414245,546.2274430036341,548.1083558143146,1 45679U 20035Y   25345.60086598  .00010904  00000+0  74952-3 0  9995,2 45679  53.0530  92.0641 0001358  96.5020 263.6124 15.06414245305598
STARLINK-1402,45685,53.0533,0.0003936,15.31533093,468.5416676568557,473.9334953274056,1 45685U 20035AE  25346.24028850  .00073889  00000+0  23812-2 0  9999,2 45685  53.0533  75.3317 0003936 299.6389  60.4218 15.31533093305891
STARLINK-1404,45686,53.0546,0.0001509,15.06395673,546.1797825032427,548.2698567003972,1 45686U 20035AF  25346.29012766  .00000167  00000+0  30097-4 0  9998,2 45686  53.0546  88.9675 0001509 122.1629 237.9506 15.06395673305707
STARLINK-1413,45689,53.0538,0.0001342,15.06425537,546.2039205437795,548.0626630901024,1 45689U 20035AJ  25345.71141748  .00006873  00000+0  47952-3 0  9997,2 45689  53.0538  91.5655 0001342  90.8668 269.2475 15.06425537305524
STARLINK-1417,45693,53.0532,0.0001367,15.07644835,542.4527693752261,544.3451173021358,1 45693U 20035AN  25345.69922547  .00039168  00000+0  25467-2 0  9992,2 45693  53.0532  91.5350 0001367 358.2095   1.8890 15.07644835305602
STARLINK-1420,45695,53.0538,0.0001381,15.06386372,546.2969297063364,548.2097225144089,1 45695U 20035AQ  25346.23943368  .00001609  00000+0  12692-3 0  9995,2 45695  53.0538  69.1889 0001381  73.6236 286.4905 15.06386372305975
STARLINK-1422,45696,53.0533,0.00019,15.06382062,545.9507091984751,548.5823625421053,1 45696U 20035AR  25346.24959425 -.00001257  00000+0 -65492-4 0  9996,2 45696  53.0533  89.1528 0001900  85.2735 274.8471 15.06382062305682
STARLINK-1351,45697,53.0544,8.11e-05,15.06382052,546.704916290214,547.8282167487032,1 45697U 20035AS  25346.22562532 -.00009522  00000+0 -62154-3 0  9998,2 45697  53.0544  69.2614 0000811  90.0714 270.0368 15.06382052305975
STARLINK-1398,45699,53.0487,0.0002487,15.5877293,389.5237793034039,392.8908511658019,1 45699U 20035AU  25346.33349537 -.00044555  00000+0 -56370-3 0  9998,2 45699  53.0487  13.9509 0002487 351.3554 262.2114 15.58772930  5938
STARLINK-1400,45700,53.0549,0.0001168,15.06383525,546.4531652913774,548.0709385099017,1 45700U 20035AV  25346.26618134 -.00000538  00000+0 -17263-4 0  9997,2 45700  53.0549  69.0795 0001168  97.1221 262.9901 15.06383525305979
STARLINK-1403,45701,53.0529,8.48e-05,15.06385483,546.6687774790471,547.8433241404646,1 45701U 20035AW  25346.22931868 -.00000525  00000+0 -16390-4 0  9992,2 45701  53.0529  69.2439 0000848  62.2329 297.8746 15.06385483305969
STARLINK-1407,45703,53.0419,0.0007961,15.45411539,424.7490220974596,435.5892070931186,1 45703U 20035AY  25346.31187336  .00029776  00000+0  61873-3 0  9999,2 45703  53.0419  16.4108 0007961 185.2183 174.8742 15.45411539306723
STARLINK-1411,45706,53.0522,0.000386,15.46619135,423.99807734026217,429.2513533845213,1 45706U 20035BB  25346.19232945  .00092698  00000+0  18169-2 0  9997,2 45706  53.0522  44.1791 0003860  14.9430 345.1690 15.46619135306317
STARLINK-1423,45710,53.057,0.0001361,15.06340892,546.4501567738307,548.3352859639863,1 45710U 20035BF  25346.25515058 -.00012183  00000+0 -80169-3 0  9991,2 45710  53.0570  69.1271 0001361  92.9870 267.1275 15.06340892305973
STARLINK-1433,45711,53.0541,0.0001182,15.06388101,546.4294463893839,548.0666074097426,1 45711U 20035BG  25346.23669142 -.00006510  00000+0 -41866-3 0  9992,2 45711  53.0541  69.2097 0001182 100.7079 259.4043 15.06388101305960
STARLINK-1434,45712,53.0516,0.0002379,15.18455683,508.8684950541856,512.1461120138065,1 45712U 20035BH  25345.64869567  .00038888  00000+0  18698-2 0  9997,2 45712  53.0516  64.9878 0002379 202.2389 157.8502 15.18455683305989
STARLINK-1465,45731,53.0542,0.0001401,15.06432001,546.1432536260791,548.0837088109165,1 45731U 20038B   25346.20350239  .00022179  00000+0  15019-2 0  9995,2 45731  53.0542 269.3586 0001401  97.6921 262.4227 15.06432001303003
STARLINK-1471,45735,53.0493,0.0001644,15.43095433,435.8596152167556,438.1004256930819,1 45735U 20038F   25346.29357328  .00023779  00000+0  53711-3 0  9993,2 45735  53.0493 198.7137 0001644 101.0377 259.0813 15.43095433304013
STARLINK-1474,45738,53.0323,0.0001652,15.75711546,341.4968896619848,343.71742353132413,1 45738U 20038J   25345.87726638  .00129034  00000+0  81601-3 0  9993,2 45738  53.0323 149.2332 0001652 123.1762 236.9415 15.75711546304666
STARLINK-1475,45739,53.0324,0.0006675,16.20894273,212.7226121230742,221.52728682562338,1 45739U 20038K   25345.94135475  .02055724  11853-4  96190-3 0  9993,2 45739  53.0324 108.7952 0006675 333.2807  26.7887 16.20894273305243
STARLINK-1480,45741,53.0551,8.84e-05,15.0710144,544.4505683750513,545.6745900606575,1 45741U 20038M   25346.11846268  .00299045  00000+0  18898-1 0  9993,2 45741  53.0551 269.7337 0000884 123.8848 236.2225 15.07101440303004
STARLINK-1500,45744,53.0373,0.0002068,15.29923691,474.62275860632053,477.45764629725363,1 45744U 20038Q   25346.14449693  .00029617  00000+0  10166-2 0  9997,2 45744  53.0373 241.8333 0002068  51.5483 308.5701 15.29923691303392
STARLINK-1504,45746,53.025,0.0003394,15.44538334,430.4233142563953,435.0465341185345,1 45746U 20038S   25345.91320156  .00070168  00000+0  14832-2 0  9996,2 45746  53.0250 203.4337 0003394  87.7157 272.4237 15.44538334303901
STARLINK-1506,45747,53.0669,0.0002578,15.23165317,494.527933164788,498.0723929660644,1 45747U 20038T   25346.14849556  .00014786  00000+0  63040-3 0  9993,2 45747  53.0669 246.3507 0002578  37.4818 322.6358 15.23165317303333
STARLINK-1464,45751,53.0539,0.0001484,15.06411547,546.148451798238,548.2038847465819,1 45751U 20038X   25346.12057459  .00002535  00000+0  18897-3 0  9998,2 45751  53.0539 249.7308 0001484  89.5677 270.5482 15.06411547303289
STARLINK-1477,45754,53.053,0.0006484,15.09011954,534.7326314071433,543.7030571692158,1 45754U 20038AA  25346.16041421  .00027493  00000+0  17299-2 0  9991,2 45754  53.0530 249.1136 0006484  95.7144 264.4586 15.09011954303298
STARLINK-1478,45755,53.055,0.0001682,15.06431151,545.9512586859582,548.2809138241746,1 45755U 20038AB  25346.15375095  .00014694  00000+0  10024-2 0  9996,2 45755  53.0550 249.5773 0001682  97.8974 262.2206 15.06431151303276
STARLINK-1484,45756,53.0118,6.96e-05,15.69757674,359.1213833110387,360.0592749552534,1 45756U 20038AC  25346.14912238  .00107612  00000+0  87974-3 0  9994,2 45756  53.0118 137.5849 0000696 147.5919 212.5140 15.69757674304842
STARLINK-1493,45759,53.0539,0.0001485,15.06439804,546.061170952049,548.1179632424783,1 45759U 20038AF  25346.14268769  .00016953  00000+0  11531-2 0  9992,2 45759  53.0539 249.6299 0001485  93.5938 266.5221 15.06439804303272
